{
  "type": "FeatureCollection",
  "crs": { "type": "name", "properties": { "name": "urn:ogc:def:crs:OGC:1.3:CRS84" } },
  "features": [
    {
      "type": "Feature",
      "properties": {
        "sample_id": "region_1",
        "sample_region": "Alpine Valley",
        "region_type": "mountain"
      },
      "geometry": {
        "type": "Polygon",
        "coordinates": [
          [
            [16.2, 47.8],
            [16.3, 47.8],
            [16.3, 47.9],
            [16.2, 47.9],
            [16.2, 47.8]
          ]
        ]
      }
    },
    {
      "type": "Feature",
      "properties": {
        "sample_id": "region_2",
        "sample_region": "Lakeside Resort",
        "region_type": "lake"
      },
      "geometry": {
        "type": "Polygon",
        "coordinates": [
          [
            [16.4, 47.5],
            [16.5, 47.5],
            [16.5, 47.6],
            [16.4, 47.6],
            [16.4, 47.5]
          ]
        ]
      }
    }
  ]
}